[
    {
        "Altitude(m)": 553593.2145954476,
        "Argument of Periapsis(deg)": 0.006622991110713501,
        "Eccentricity": 0.0,
        "Inclination(deg)": 53.0,
        "Latitude(deg)": 16.505877561983272,
        "Longitude(deg)": -28.60393006271928,
        "Mean Anomaly(deg)": -200.81750713242243,
        "RAAN(deg)": 264.990143368528,
        "Satellite Name": "Starlink Shell 1 1175",
        "Satellite Number": 1175,
        "Semi-Major Axis(m)": 6931778.249405717,
        "Time(s)": 190
    },
    {
        "Altitude(m)": 553571.0410060489,
        "Argument of Periapsis(deg)": 0.0069715695902247375,
        "Eccentricity": 0.0,
        "Inclination(deg)": 53.0,
        "Latitude(deg)": 16.014321154315507,
        "Longitude(deg)": -28.23659440659506,
        "Mean Anomaly(deg)": -200.1906759288657,
        "RAAN(deg)": 264.9896245984506,
        "Satellite Name": "Starlink Shell 1 1175",
        "Satellite Number": 1175,
        "Semi-Major Axis(m)": 6931778.249405717,
        "Time(s)": 200
    },
    {
        "Altitude(m)": 553551.247288337,
        "Argument of Periapsis(deg)": 0.007320148069735974,
        "Eccentricity": 0.0,
        "Inclination(deg)": 53.0,
        "Latitude(deg)": 15.521972063828889,
        "Longitude(deg)": -27.871256207924215,
        "Mean Anomaly(deg)": -199.563844725309,
        "RAAN(deg)": 264.9891058283731,
        "Satellite Name": "Starlink Shell 1 1175",
        "Satellite Number": 1175,
        "Semi-Major Axis(m)": 6931778.249405717,
        "Time(s)": 210
    },
    {
        "Altitude(m)": 553533.865310313,
        "Argument of Periapsis(deg)": 0.007668726549247212,
        "Eccentricity": 0.0,
        "Inclination(deg)": 53.0,
        "Latitude(deg)": 15.028859587215353,
        "Longitude(deg)": -27.507844958112162,
        "Mean Anomaly(deg)": -198.9370135217523,
        "RAAN(deg)": 264.9885870582956,
        "Satellite Name": "Starlink Shell 1 1175",
        "Satellite Number": 1175,
        "Semi-Major Axis(m)": 6931778.249405717,
        "Time(s)": 220
    },
    {
        "Altitude(m)": 553518.9258613952,
        "Argument of Periapsis(deg)": 0.00801730502875845,
        "Eccentricity": 0.0,
        "Inclination(deg)": 53.0,
        "Latitude(deg)": 14.535012596633203,
        "Longitude(deg)": -27.146290964784278,
        "Mean Anomaly(deg)": -198.31018231819556,
        "RAAN(deg)": 264.98806828821813,
        "Satellite Name": "Starlink Shell 1 1175",
        "Satellite Number": 1175,
        "Semi-Major Axis(m)": 6931778.249405717,
        "Time(s)": 230
    },
    {
        "Altitude(m)": 553506.4586344688,
        "Argument of Periapsis(deg)": 0.008365883508269684,
        "Eccentricity": 0.0,
        "Inclination(deg)": 53.0,
        "Latitude(deg)": 14.040459556891351,
        "Longitude(deg)": -26.78652482055623,
        "Mean Anomaly(deg)": -197.6833511146388,
        "RAAN(deg)": 264.98754951814067,
        "Satellite Name": "Starlink Shell 1 1175",
        "Satellite Number": 1175,
        "Semi-Major Axis(m)": 6931778.249405717,
        "Time(s)": 240
    },
    {
        "Altitude(m)": 553496.4922084688,
        "Argument of Periapsis(deg)": 0.008714461987780921,
        "Eccentricity": 0.0,
        "Inclination(deg)": 53.0,
        "Latitude(deg)": 13.54522854227001,
        "Longitude(deg)": -26.42847838463912,
        "Mean Anomaly(deg)": -197.05651991108218,
        "RAAN(deg)": 264.9870307480632,
        "Satellite Name": "Starlink Shell 1 1175",
        "Satellite Number": 1175,
        "Semi-Major Axis(m)": 6931778.249405717,
        "Time(s)": 250
    },
    {
        "Altitude(m)": 553489.0540314985,
        "Argument of Periapsis(deg)": 0.009063040467292158,
        "Eccentricity": 0.0,
        "Inclination(deg)": 53.0,
        "Latitude(deg)": 13.049347252995627,
        "Longitude(deg)": -26.072084251556866,
        "Mean Anomaly(deg)": -196.4296887075254,
        "RAAN(deg)": 264.98651197798574,
        "Satellite Name": "Starlink Shell 1 1175",
        "Satellite Number": 1175,
        "Semi-Major Axis(m)": 6931778.249405717,
        "Time(s)": 260
    },
    {
        "Altitude(m)": 553484.1704044889,
        "Argument of Periapsis(deg)": 0.009411618946803396,
        "Eccentricity": 0.0,
        "Inclination(deg)": 53.0,
        "Latitude(deg)": 12.552843031380636,
        "Longitude(deg)": -25.71727521986977,
        "Mean Anomaly(deg)": -195.8028575039687,
        "RAAN(deg)": 264.9859932079082,
        "Satellite Name": "Starlink Shell 1 1175",
        "Satellite Number": 1175,
        "Semi-Major Axis(m)": 6931778.249405717,
        "Time(s)": 270
    },
    {
        "Altitude(m)": 553481.866465446,
        "Argument of Periapsis(deg)": 0.009760197426314633,
        "Eccentricity": 0.0,
        "Inclination(deg)": 53.0,
        "Latitude(deg)": 12.055742877636847,
        "Longitude(deg)": -25.36398527379225,
        "Mean Anomaly(deg)": -195.176026300412,
        "RAAN(deg)": 264.98547443783076,
        "Satellite Name": "Starlink Shell 1 1175",
        "Satellite Number": 1175,
        "Semi-Major Axis(m)": 6931778.249405717,
        "Time(s)": 280
    },
    {
        "Altitude(m)": 553482.1661742222,
        "Argument of Periapsis(deg)": 0.01010877590582587,
        "Eccentricity": 0.0,
        "Inclination(deg)": 53.0,
        "Latitude(deg)": 11.558073465381646,
        "Longitude(deg)": -25.01214905197729,
        "Mean Anomaly(deg)": -194.54919509685527,
        "RAAN(deg)": 264.9849556677533,
        "Satellite Name": "Starlink Shell 1 1175",
        "Satellite Number": 1175,
        "Semi-Major Axis(m)": 6931778.249405717,
        "Time(s)": 290
    },
    {
        "Altitude(m)": 553485.0922978857,
        "Argument of Periapsis(deg)": 0.010457354385337106,
        "Eccentricity": 0.0,
        "Inclination(deg)": 53.0,
        "Latitude(deg)": 11.059861156845749,
        "Longitude(deg)": -24.66170131635171,
        "Mean Anomaly(deg)": -193.92236389329858,
        "RAAN(deg)": 264.98443689767583,
        "Satellite Name": "Starlink Shell 1 1175",
        "Satellite Number": 1175,
        "Semi-Major Axis(m)": 6931778.249405717,
        "Time(s)": 300
    },
    {
        "Altitude(m)": 553490.6663966677,
        "Argument of Periapsis(deg)": 0.010805932864848343,
        "Eccentricity": 0.0,
        "Inclination(deg)": 53.0,
        "Latitude(deg)": 10.561132017793074,
        "Longitude(deg)": -24.31257793388562,
        "Mean Anomaly(deg)": -193.29553268974178,
        "RAAN(deg)": 264.9839181275983,
        "Satellite Name": "Starlink Shell 1 1175",
        "Satellite Number": 1175,
        "Semi-Major Axis(m)": 6931778.249405717,
        "Time(s)": 310
    },
    {
        "Altitude(m)": 553498.9088105165,
        "Argument of Periapsis(deg)": 0.01115451134435958,
        "Eccentricity": 0.0,
        "Inclination(deg)": 53.0,
        "Latitude(deg)": 10.061911832171035,
        "Longitude(deg)": -23.964715345561814,
        "Mean Anomaly(deg)": -192.6687014861852,
        "RAAN(deg)": 264.98339935752085,
        "Satellite Name": "Starlink Shell 1 1175",
        "Satellite Number": 1175,
        "Semi-Major Axis(m)": 6931778.249405717,
        "Time(s)": 320
    },
    {
        "Altitude(m)": 553509.8386462147,
        "Argument of Periapsis(deg)": 0.011503089823870818,
        "Eccentricity": 0.0,
        "Inclination(deg)": 53.0,
        "Latitude(deg)": 9.56222611649905,
        "Longitude(deg)": -23.618050035423074,
        "Mean Anomaly(deg)": -192.0418702826284,
        "RAAN(deg)": 264.98288058744345,
        "Satellite Name": "Starlink Shell 1 1175",
        "Satellite Number": 1175,
        "Semi-Major Axis(m)": 6931778.249405717,
        "Time(s)": 330
    },
    {
        "Altitude(m)": 553523.4737651417,
        "Argument of Periapsis(deg)": 0.011851668303382053,
        "Eccentricity": 0.0,
        "Inclination(deg)": 53.0,
        "Latitude(deg)": 9.06210013400839,
        "Longitude(deg)": -23.272519512577393,
        "Mean Anomaly(deg)": -191.41503907907173,
        "RAAN(deg)": 264.9823618173659,
        "Satellite Name": "Starlink Shell 1 1175",
        "Satellite Number": 1175,
        "Semi-Major Axis(m)": 6931778.249405717,
        "Time(s)": 340
    },
    {
        "Altitude(m)": 553539.8307716179,
        "Argument of Periapsis(deg)": 0.012200246782893292,
        "Eccentricity": 0.0,
        "Inclination(deg)": 53.0,
        "Latitude(deg)": 8.561558908547061,
        "Longitude(deg)": -22.92806178041891,
        "Mean Anomaly(deg)": -190.788207875515,
        "RAAN(deg)": 264.98184304728846,
        "Satellite Name": "Starlink Shell 1 1175",
        "Satellite Number": 1175,
        "Semi-Major Axis(m)": 6931778.249405717,
        "Time(s)": 350
    },
    {
        "Altitude(m)": 553558.9250018891,
        "Argument of Periapsis(deg)": 0.012548825262404526,
        "Eccentricity": 0.0,
        "Inclination(deg)": 53.0,
        "Latitude(deg)": 8.060627238262784,
        "Longitude(deg)": -22.584614805941488,
        "Mean Anomaly(deg)": -190.1613766719582,
        "RAAN(deg)": 264.981324277211,
        "Satellite Name": "Starlink Shell 1 1175",
        "Satellite Number": 1175,
        "Semi-Major Axis(m)": 6931778.249405717,
        "Time(s)": 360
    },
    {
        "Altitude(m)": 553580.7705137249,
        "Argument of Periapsis(deg)": 0.012897403741915765,
        "Eccentricity": 0.0,
        "Inclination(deg)": 53.0,
        "Latitude(deg)": 7.559329709071623,
        "Longitude(deg)": -22.242117502018754,
        "Mean Anomaly(deg)": -189.53454546840155,
        "RAAN(deg)": 264.9808055071335,
        "Satellite Name": "Starlink Shell 1 1175",
        "Satellite Number": 1175,
        "Semi-Major Axis(m)": 6931778.249405717,
        "Time(s)": 370
    }
]